KUIPER-00008            
1 63724U 25088A   25338.71326486  .00000905  00000+0  93797-4 0  9995
2 63724  51.8890 159.8656 0010470 143.3409 216.8280 14.99774038 33815
KUIPER-00009            
1 63725U 25088B   25339.00003471  .00043035  00000+0  56362-2 0  9991
2 63725  51.8992 165.3340 0012943 136.4646  18.9344 14.79893895  4590
KUIPER-00010            
1 63726U 25088C   25338.68642998  .00003405  00000+0  47071-3 0  9993
2 63726  51.8996 143.1163 0012196 182.4597 177.6307 14.80342352 33669
KUIPER-00011            
1 63727U 25088D   25338.78628455 -.00000836  00000+0 -79933-4 0  9997
2 63727  51.8988 150.3197 0014620 155.5956 204.5701 14.79941243 33707
KUIPER-00012            
1 63728U 25088E   25338.67027494  .00003445  00000+0  51659-3 0  9993
2 63728  51.9008 134.0341 0009218 165.3153 194.8077 14.76808000 33872
KUIPER-00013            
1 63729U 25088F   25339.24014494  .00004021  00000+0  55545-3 0  9993
2 63729  51.9004 165.7406 0008769  75.1164 285.0769 14.79984090 33588
KUIPER-00014            
1 63730U 25088G   25339.23846926 -.00002030  00000+0 -23681-3 0  9993
2 63730  51.9005 166.7185 0010081 134.0446 226.1349 14.79935740 33380
KUIPER-00015            
1 63731U 25088H   25339.28850990  .00004766  00000+0  62348-3 0  9994
2 63731  51.8977 177.5870 0011233 123.0799 237.1244 14.81929397 33692
